ISS (ZARYA)             
1 25544U 98067A   26069.48132270  .00008982  00000+0  17350-3 0  9995
2 25544  51.6323  68.4424 0007950 177.3713 182.7319 15.48562437556451
POISK                   
1 36086U 09060A   26069.48132270  .00008982  00000+0  17350-3 0  9993
2 36086  51.6323  68.4424 0007950 177.3713 182.7319 15.48562437554441
CSS (TIANHE)            
1 48274U 21035A   26069.80341873  .00031070  00000+0  36544-3 0  9998
2 48274  41.4661 201.3850 0006965 279.9751  80.0301 15.60727089277782
ISS (NAUKA)             
1 49044U 21066A   26069.48132270  .00008982  00000+0  17350-3 0  9991
2 49044  51.6323  68.4424 0007950 177.3713 182.7319 15.48562437554450
FREGAT DEB              
1 49271U 11037PF  26069.81192602  .00021871  00000+0  31357-1 0  9995
2 49271  51.6511 297.3866 0960698  61.9904 307.4777 12.40223560212838
CSS (WENTIAN)           
1 53239U 22085A   26069.80341873  .00031070  00000+0  36544-3 0  9991
2 53239  41.4661 201.3850 0006965 279.9751  80.0301 15.60727089275619
CSS (MENGTIAN)          
1 54216U 22143A   26069.80341873  .00031070  00000+0  36544-3 0  9992
2 54216  41.4661 201.3850 0006965 279.9751  80.0301 15.60727089275581
PROGRESS-MS 31          
1 64751U 25146A   26069.48132270  .00008982  00000+0  17350-3 0  9996
2 64751  51.6323  68.4424 0007950 177.3713 182.7319 15.48562437554463
TIANZHOU-9              
1 64786U 25149A   26069.80341873  .00031070  00000+0  36544-3 0  9994
2 64786  41.4661 201.3850 0006965 279.9751  80.0301 15.60727089275595
PROGRESS-MS 32          
1 65586U 25204A   26069.48132270  .00008982  00000+0  17350-3 0  9998
2 65586  51.6323  68.4424 0007950 177.3713 182.7319 15.48562437554505
CYGNUS NG-23            
1 65616U 25208A   26069.48132270  .00008982  00000+0  17350-3 0  9996
2 65616  51.6323  68.4424 0007950 177.3713 182.7319 15.48562437554510
ISS OBJECT XK           
1 65731U 98067XK  26068.92741747  .09293516  12338-4  75547-3 0  9992
2 65731  51.6052  44.2508 0002463 211.8886 148.1991 16.39076546 26946
